GAOFEN-14 02            
1 66175U 25242A   25318.46556247  .00014152  00000+0  52318-3 0  9992
2 66175  97.4386  30.6022 0011017 193.9078 166.1859 15.27766001  2951
CZ-3B R/B               
1 66176U 25242B   25309.65934494  .00029904  00000+0  58815-3 0  9997
2 66176  97.4571  21.8726 0103778   5.1082 355.1197 15.41457457  1622
STARLINK-35352          
1 66177U 25243A   25323.83336806 -.01242882  00000+0 -23851-1 0  9993
2 66177  53.1597  36.3106 0001055  69.8034 274.0997 15.50189636  4904
STARLINK-35363          
1 66178U 25243B   25323.83336806 -.01227641  00000+0 -23540-1 0  9995
2 66178  53.1598  36.3178 0001035  73.8103 266.2643 15.50177692  4961
STARLINK-35346          
1 66179U 25243C   25323.83336806 -.01255253  00000+0 -24107-1 0  9996
2 66179  53.1595  36.3221 0001218  65.7299 272.4244 15.50194782  4906
STARLINK-35335          
1 66180U 25243D   25323.83336806 -.01237046  00000+0 -23732-1 0  9991
2 66180  53.1594  36.3265 0001051  75.4181 260.8199 15.50184680  4904
STARLINK-35342          
1 66181U 25243E   25323.83336806 -.01249937  00000+0 -23996-1 0  9996
2 66181  53.1594  36.3310 0001048  73.1616 261.1553 15.50194837  4903
STARLINK-35333          
1 66182U 25243F   25323.83336806 -.01250894  00000+0 -24016-1 0  9995
2 66182  53.1594  36.3345 0001143  72.9168 259.4854 15.50193656  4853
STARLINK-35310          
1 66183U 25243G   25323.83336806 -.01234027  00000+0 -23670-1 0  9991
2 66183  53.1593  36.3389 0001138  79.7407 250.7463 15.50182756  4967
STARLINK-35317          
1 66184U 25243H   25323.83336806 -.01268879  00000+0 -24387-1 0  9990
2 66184  53.1593  36.3793 0001260  61.0513 250.2648 15.50204297  4904
STARLINK-35377          
1 66185U 25243J   25323.83336806 -.01266224  00000+0 -24333-1 0  9994
2 66185  53.1594  36.3873 0001153  70.6532 236.8302 15.50202737  4963
STARLINK-35365          
1 66186U 25243K   25323.83336806 -.01271306  00000+0 -24438-1 0  9998
2 66186  53.1594  36.3957 0001087  64.9450 238.7038 15.50205852  4900
